ONEWEB-0473             
1 51653U 22012AH  26178.86801028 -.00000418  00000+0 -12332-2 0  9991
2 51653  87.8827  34.1488 0001828  82.1146 278.0189 13.10376508210700
ONEWEB-0474             
1 51654U 22012AJ  26178.85949119 -.00000601  00000+0 -17566-2 0  9993
2 51654  87.8833  34.1362 0001531  82.0642 278.0659 13.10373607210697
ONEWEB-0475             
1 51655U 22012AK  26178.92931915  .00002609  00000+0  66829-2 0  9991
2 51655  87.9134   3.7353 0001070  56.5428 303.5806 13.17666521215107
ONEWEB-0490             
1 54113U 22138A   26178.90057304 -.00000003  00000+0 -40962-4 0  9991
2 54113  87.9185 302.8332 0001822 105.2604 254.8730 13.19725820178245
ONEWEB-0492             
1 54114U 22138B   26178.85002454  .00000098  00000+0  21310-3 0  9999
2 54114  87.9179 302.8441 0002018 107.1468 252.9886 13.19726070178246
ONEWEB-0495             
1 54115U 22138C   26178.82791573 -.00000044  00000+0 -14169-3 0  9991
2 54115  87.9178 302.8510 0001574 119.3249 240.8042 13.19725370178221
ONEWEB-0497             
1 54116U 22138D   26178.84055189 -.00000424  00000+0 -10920-2 0  9992
2 54116  87.9186 302.8412 0001491 105.4110 254.7188 13.19727683178216
ONEWEB-0499             
1 54117U 22138E   26178.89976698 -.00000025  00000+0 -94163-4 0  9995
2 54117  87.9177 302.8379 0001676 103.6096 256.5224 13.19727261178232
ONEWEB-0500             
1 54118U 22138F   26178.82633720 -.00000058  00000+0 -17683-3 0  9992
2 54118  87.9185 302.8474 0001997 100.4036 259.7322 13.19725048178238
ONEWEB-0501             
1 54119U 22138G   26178.85635241  .00000056  00000+0  10660-3 0  9990
2 54119  87.9186 302.8412 0001632 111.3010 248.8297 13.19724820178216
ONEWEB-0502             
1 54120U 22138H   26178.84212874 -.00000062  00000+0 -18814-3 0  9992
2 54120  87.9187 302.8329 0001663 101.8953 258.2366 13.19724604178234
ONEWEB-0503             
1 54121U 22138J   26178.83107458 -.00000004  00000+0 -42103-4 0  9998
2 54121  87.9191 302.8413 0001800  92.2978 267.8361 13.19725625178221
ONEWEB-0504             
1 54122U 22138K   26178.89425729 -.00000021  00000+0 -83610-4 0  9996
2 54122  87.9186 302.8335 0001656 101.0189 259.1130 13.19725346178241
ONEWEB-0505             
1 54123U 22138L   26178.89109012 -.00000057  00000+0 -17476-3 0  9996
2 54123  87.9184 302.8348 0001540 109.6478 250.4822 13.19726557178226
ONEWEB-0506             
1 54124U 22138M   26178.79000589 -.00000073  00000+0 -21432-3 0  9990
2 54124  87.9189 302.8522 0001667 107.8114 252.3201 13.19724506178205
ONEWEB-0507             
1 54125U 22138N   26178.88635802 -.00000044  00000+0 -14265-3 0  9997
2 54125  87.9179 302.8443 0001790 105.7998 254.3333 13.19725606178267
ONEWEB-0508             
1 54126U 22138P   26178.80737895 -.00000006  00000+0 -47771-4 0  9992
2 54126  87.9177 302.8593 0001792 114.2239 245.9081 13.19725267178233
ONEWEB-0509             
1 54127U 22138Q   26178.85791834 -.00000022  00000+0 -86105-4 0  9993
2 54127  87.9188 302.8399 0001823 103.7286 256.4050 13.19725035178214
ONEWEB-0510             
1 54128U 22138R   26178.66220255  .00000022  00000+0  21360-4 0  9997
2 54128  87.9196 272.3486 0002296  90.4614 269.6783 13.20773517180665
ONEWEB-0511             
1 54129U 22138S   26178.85475702 -.00000077  00000+0 -22365-3 0  9995
2 54129  87.9184 302.8429 0001654  94.9089 265.2232 13.19726489178247
ONEWEB-0512             
1 54130U 22138T   26178.84686224  .00000024  00000+0  27191-4 0  9992
2 54130  87.9176 302.8487 0001569 103.8593 256.2715 13.19725773178217
ONEWEB-0513             
1 54131U 22138U   26178.84809360 -.00000028  00000+0 -10113-3 0  9992
2 54131  87.9186 302.7914 0000963 102.2787 257.8454 13.20268802178122
ONEWEB-0514             
1 54132U 22138V   26178.86266013 -.00000036  00000+0 -12337-3 0  9996
2 54132  87.9186 302.8404 0001977  96.7966 263.3391 13.19725565178236
ONEWEB-0515             
1 54133U 22138W   26178.95177614 -.00000051  00000+0 -15851-3 0  9996
2 54133  87.9199 272.2859 0002876 101.3638 258.7818 13.20771292180722
ONEWEB-0516             
1 54134U 22138X   26178.83737930  .00000054  00000+0  10322-3 0  9996
2 54134  87.9177 302.8508 0001927 104.5132 255.6215 13.19725650178235
ONEWEB-0517             
1 54135U 22138Y   26178.89267321 -.00000058  00000+0 -17736-3 0  9997
2 54135  87.9185 302.8330 0001805  90.8145 269.3195 13.19725225178242
ONEWEB-0518             
1 54136U 22138Z   26178.83579996 -.00000039  00000+0 -13076-3 0  9998
2 54136  87.9179 302.8531 0002005 105.0596 255.0759 13.19728042178238
ONEWEB-0519             
1 54137U 22138AA  26178.86107593 -.00000021  00000+0 -85656-4 0  9997
2 54137  87.9185 302.8403 0001831  93.7189 266.4153 13.19726348178243
ONEWEB-0520             
1 54138U 22138AB  26178.89583645 -.00000068  00000+0 -20233-3 0  9997
2 54138  87.9188 302.8336 0001737 106.9940 253.1384 13.19725413178239
ONEWEB-0521             
1 54139U 22138AC  26178.85317935  .00000022  00000+0  23356-4 0  9999
2 54139  87.9187 302.8305 0001866  92.5940 267.5406 13.19725849178178
