OBJECT_NAME,OBJECT_ID,EPOCH,MEAN_MOTION,ECCENTRICITY,INCLINATION,RA_OF_ASC_NODE,ARG_OF_PERICENTER,MEAN_ANOMALY,EPHEMERIS_TYPE,CLASSIFICATION_TYPE,NORAD_CAT_ID,ELEMENT_SET_NO,REV_AT_EPOCH,BSTAR,MEAN_MOTION_DOT,MEAN_MOTION_DDOT
ONEWEB-0473,2022-012AH,2026-06-27T20:49:56.088192,13.10376508,.00018285,87.8827,34.1488,82.1146,278.0189,0,U,51653,999,21070,-.12332363E-2,-.418E-5,0
ONEWEB-0474,2022-012AJ,2026-06-27T20:37:40.038816,13.10373607,.00015317,87.8833,34.1362,82.0642,278.0659,0,U,51654,999,21069,-.17566326E-2,-.601E-5,0
ONEWEB-0475,2022-012AK,2026-06-27T22:18:13.174560,13.17666521,.00010703,87.9134,3.7353,56.5428,303.5806,0,U,51655,999,21510,.66828927E-2,.2609E-4,0
ONEWEB-0490,2022-138A,2026-06-27T21:36:49.510656,13.19725820,.0001822,87.9185,302.8332,105.2604,254.8730,0,U,54113,999,17824,-.40961849E-4,-.3E-7,0
ONEWEB-0492,2022-138B,2026-06-27T20:24:02.120256,13.19726070,.00020189,87.9179,302.8441,107.1468,252.9886,0,U,54114,999,17824,.21310005E-3,.98E-6,0
ONEWEB-0495,2022-138C,2026-06-27T19:52:11.919072,13.19725370,.00015741,87.9178,302.8510,119.3249,240.8042,0,U,54115,999,17822,-.14168728E-3,-.44E-6,0
ONEWEB-0497,2022-138D,2026-06-27T20:10:23.683296,13.19727683,.00014919,87.9186,302.8412,105.4110,254.7188,0,U,54116,999,17821,-.10920442E-2,-.424E-5,0
ONEWEB-0499,2022-138E,2026-06-27T21:35:39.867072,13.19727261,.00016761,87.9177,302.8379,103.6096,256.5224,0,U,54117,999,17823,-.94163023E-4,-.25E-6,0
ONEWEB-0500,2022-138F,2026-06-27T19:49:55.534080,13.19725048,.00019977,87.9185,302.8474,100.4036,259.7322,0,U,54118,999,17823,-.17683329E-3,-.58E-6,0
ONEWEB-0501,2022-138G,2026-06-27T20:33:08.848224,13.19724820,.00016324,87.9186,302.8412,111.3010,248.8297,0,U,54119,999,17821,.10659989E-3,.56E-6,0
ONEWEB-0502,2022-138H,2026-06-27T20:12:39.923136,13.19724604,.00016637,87.9187,302.8329,101.8953,258.2366,0,U,54120,999,17823,-.18814093E-3,-.62E-6,0
ONEWEB-0503,2022-138J,2026-06-27T19:56:44.843712,13.19725625,.00018007,87.9191,302.8413,92.2978,267.8361,0,U,54121,999,17822,-.42103361E-4,-.4E-7,0
ONEWEB-0504,2022-138K,2026-06-27T21:27:43.829856,13.19725346,.00016565,87.9186,302.8335,101.0189,259.1130,0,U,54122,999,17824,-.83610366E-4,-.21E-6,0
ONEWEB-0505,2022-138L,2026-06-27T21:23:10.186368,13.19726557,.00015406,87.9184,302.8348,109.6478,250.4822,0,U,54123,999,17822,-.17476228E-3,-.57E-6,0
ONEWEB-0506,2022-138M,2026-06-27T18:57:36.508896,13.19724506,.00016673,87.9189,302.8522,107.8114,252.3201,0,U,54124,999,17820,-.21431776E-3,-.73E-6,0
ONEWEB-0507,2022-138N,2026-06-27T21:16:21.332928,13.19725606,.00017904,87.9179,302.8443,105.7998,254.3333,0,U,54125,999,17826,-.14265379E-3,-.44E-6,0
ONEWEB-0508,2022-138P,2026-06-27T19:22:37.541280,13.19725267,.00017922,87.9177,302.8593,114.2239,245.9081,0,U,54126,999,17823,-.47771321E-4,-.6E-7,0
ONEWEB-0509,2022-138Q,2026-06-27T20:35:24.144576,13.19725035,.00018235,87.9188,302.8399,103.7286,256.4050,0,U,54127,999,17821,-.86105083E-4,-.22E-6,0
ONEWEB-0510,2022-138R,2026-06-27T15:53:34.300320,13.20773517,.00022962,87.9196,272.3486,90.4614,269.6783,0,U,54128,999,18066,.21360318E-4,.22E-6,0
ONEWEB-0511,2022-138S,2026-06-27T20:30:51.006528,13.19726489,.00016541,87.9184,302.8429,94.9089,265.2232,0,U,54129,999,17824,-.22364805E-3,-.77E-6,0
ONEWEB-0512,2022-138T,2026-06-27T20:19:28.897536,13.19725773,.00015695,87.9176,302.8487,103.8593,256.2715,0,U,54130,999,17821,.2719131E-4,.24E-6,0
ONEWEB-0513,2022-138U,2026-06-27T20:21:15.287040,13.20268802,.0000963,87.9186,302.7914,102.2787,257.8454,0,U,54131,999,17812,-.1011292E-3,-.28E-6,0
ONEWEB-0514,2022-138V,2026-06-27T20:42:13.835232,13.19725565,.00019773,87.9186,302.8404,96.7966,263.3391,0,U,54132,999,17823,-.12336767E-3,-.36E-6,0
ONEWEB-0515,2022-138W,2026-06-27T22:50:33.458496,13.20771292,.00028766,87.9199,272.2859,101.3638,258.7818,0,U,54133,999,18072,-.15851252E-3,-.51E-6,0
ONEWEB-0516,2022-138X,2026-06-27T20:05:49.571520,13.19725650,.00019274,87.9177,302.8508,104.5132,255.6215,0,U,54134,999,17823,.1032197E-3,.54E-6,0
ONEWEB-0517,2022-138Y,2026-06-27T21:25:26.965344,13.19725225,.0001805,87.9185,302.8330,90.8145,269.3195,0,U,54135,999,17824,-.17735763E-3,-.58E-6,0
ONEWEB-0518,2022-138Z,2026-06-27T20:03:33.116544,13.19728042,.0002005,87.9179,302.8531,105.0596,255.0759,0,U,54136,999,17823,-.13075827E-3,-.39E-6,0
ONEWEB-0519,2022-138AA,2026-06-27T20:39:56.960352,13.19726348,.00018317,87.9185,302.8403,93.7189,266.4153,0,U,54137,999,17824,-.85655972E-4,-.21E-6,0
ONEWEB-0520,2022-138AB,2026-06-27T21:30:00.269280,13.19725413,.00017377,87.9188,302.8336,106.9940,253.1384,0,U,54138,999,17823,-.20232755E-3,-.68E-6,0
ONEWEB-0521,2022-138AC,2026-06-27T20:28:34.695840,13.19725849,.00018666,87.9187,302.8305,92.5940,267.5406,0,U,54139,999,17817,.23355837E-4,.22E-6,0
